ERNST                   
1 60528U 24149BN  26117.17835192  .00018318  00000+0  49380-3 0  9991
2 60528  97.3812 200.5707 0007698 116.1818 244.0219 15.37837650 94437
TORO                    
1 60530U 24149BQ  26117.21650279  .00002505  00000+0  22707-3 0  9995
2 60530  97.6798 192.8397 0001752 105.0561 255.0854 14.96231753 92331
HYPSO-2                 
1 60531U 24149BR  26117.19017213  .00002210  00000+0  18948-3 0  9993
2 60531  97.6831 194.2016 0001523 107.1410 252.9979 14.98538684 92414
LEMU NGE                
1 60532U 24149BS  26117.11130450  .00002034  00000+0  19250-3 0  9996
2 60532  97.6853 193.1082 0001877 131.3027 228.8355 14.94738533 92326
LEMUR-2-STELLA          
1 60533U 24149BT  26117.16387345  .00015382  00000+0  93182-3 0  9995
2 60533  97.6739 199.4433 0001583 130.7703 229.3664 15.10680086 92795
SATELIOT_2              
1 60534U 24149BU  26117.20149098  .00001944  00000+0  17765-3 0  9994
2 60534  97.6836 193.0917 0000957 105.4994 254.6333 14.96166968 92342
NIGHTJAR                
1 60535U 24149BV  26117.18856699  .00002969  00000+0  25162-3 0  9992
2 60535  97.6857 194.6149 0000720  59.6735 300.4559 14.98725812135238
LEMUR-2-MARHISYAM       
1 60536U 24149BW  26117.19280582  .00014353  00000+0  88189-3 0  9994
2 60536  97.6873 199.8672 0000534 302.1479  57.9698 15.10181212 92784
SATELIOT_4              
1 60537U 24149BX  26117.15598602  .00002790  00000+0  25073-3 0  9991
2 60537  97.6749 192.6092 0002208 157.4874 202.6445 14.96476268 92346
PICO-02A021             
1 60538U 24149BY  26116.43723680  .00007176  00000+0  54125-3 0  9991
2 60538  97.6744 195.7336 0005128 185.3567 174.7604 15.02737662 91969
ICEYE-X43               
1 60539U 24149BZ  26117.18769102  .00003138  00000+0  25930-3 0  9990
2 60539  97.6808 194.8540 0002379 259.4537 100.6418 14.99669717 92471
HAWK-10A                
1 60540U 24149CA  26117.14990382  .00002007  00000+0  18240-3 0  9994
2 60540  97.6899 193.9411 0002374 220.2048 139.8998 14.96351182 92353
UMBRA-09                
1 60541U 24149CB  26116.88928377  .00006162  00000+0  31988-3 0  9990
2 60541  97.6965 203.2849 0001894 164.6397 195.4893 15.16496038 92942
QPS-SAR-8 (AMATERU-IV)  
1 60542U 24149CC  26117.15978147  .00007337  00000+0  54074-3 0  9998
2 60542  97.6677 196.7574 0001936 281.6897  78.4111 15.03614003 92602
ARCTIC WEATHER SATELLITE
1 60543U 24149CD  26117.17558709  .00000854  00000+0  94693-4 0  9998
2 60543  97.6817 189.0939 0000602 284.4756  75.6396 14.89769765 91706
CAPELLA-15 (ACADIA-5)   
1 60544U 24149CE  26117.09924507  .00003523  00000+0  34918-3 0  9992
2 60544  97.6807 191.2761 0002570 232.5595 127.5391 14.92426865 92231
HAWK-10B                
1 60545U 24149CF  26117.21663522  .00002070  00000+0  18797-3 0  9997
2 60545  97.6822 193.4131 0003848 257.1933 102.8859 14.96352664 92360
