[{"OBJECT_NAME":"ERNST","OBJECT_ID":"2024-149BN","EPOCH":"2026-04-27T04:16:49.605888","MEAN_MOTION":15.3783765,"ECCENTRICITY":0.0007698,"INCLINATION":97.3812,"RA_OF_ASC_NODE":200.5707,"ARG_OF_PERICENTER":116.1818,"MEAN_ANOMALY":244.0219,"EPHEMERIS_TYPE":0,"CLASSIFICATION_TYPE":"U","NORAD_CAT_ID":60528,"ELEMENT_SET_NO":999,"REV_AT_EPOCH":9443,"BSTAR":0.0004938,"MEAN_MOTION_DOT":0.00018318,"MEAN_MOTION_DDOT":0},{"OBJECT_NAME":"TORO","OBJECT_ID":"2024-149BQ","EPOCH":"2026-04-27T05:11:45.841056","MEAN_MOTION":14.96231753,"ECCENTRICITY":0.0001752,"INCLINATION":97.6798,"RA_OF_ASC_NODE":192.8397,"ARG_OF_PERICENTER":105.0561,"MEAN_ANOMALY":255.0854,"EPHEMERIS_TYPE":0,"CLASSIFICATION_TYPE":"U","NORAD_CAT_ID":60530,"ELEMENT_SET_NO":999,"REV_AT_EPOCH":9233,"BSTAR":0.00022707,"MEAN_MOTION_DOT":2.505e-5,"MEAN_MOTION_DDOT":0},{"OBJECT_NAME":"HYPSO-2","OBJECT_ID":"2024-149BR","EPOCH":"2026-04-27T04:33:50.872032","MEAN_MOTION":14.98538684,"ECCENTRICITY":0.0001523,"INCLINATION":97.6831,"RA_OF_ASC_NODE":194.2016,"ARG_OF_PERICENTER":107.141,"MEAN_ANOMALY":252.9979,"EPHEMERIS_TYPE":0,"CLASSIFICATION_TYPE":"U","NORAD_CAT_ID":60531,"ELEMENT_SET_NO":999,"REV_AT_EPOCH":9241,"BSTAR":0.00018948,"MEAN_MOTION_DOT":2.21e-5,"MEAN_MOTION_DDOT":0},{"OBJECT_NAME":"LEMU NGE","OBJECT_ID":"2024-149BS","EPOCH":"2026-04-27T02:40:16.708800","MEAN_MOTION":14.94738533,"ECCENTRICITY":0.0001877,"INCLINATION":97.6853,"RA_OF_ASC_NODE":193.1082,"ARG_OF_PERICENTER":131.3027,"MEAN_ANOMALY":228.8355,"EPHEMERIS_TYPE":0,"CLASSIFICATION_TYPE":"U","NORAD_CAT_ID":60532,"ELEMENT_SET_NO":999,"REV_AT_EPOCH":9232,"BSTAR":0.0001925,"MEAN_MOTION_DOT":2.034e-5,"MEAN_MOTION_DDOT":0},{"OBJECT_NAME":"LEMUR-2-STELLA","OBJECT_ID":"2024-149BT","EPOCH":"2026-04-27T03:55:58.666080","MEAN_MOTION":15.10680086,"ECCENTRICITY":0.0001583,"INCLINATION":97.6739,"RA_OF_ASC_NODE":199.4433,"ARG_OF_PERICENTER":130.7703,"MEAN_ANOMALY":229.3664,"EPHEMERIS_TYPE":0,"CLASSIFICATION_TYPE":"U","NORAD_CAT_ID":60533,"ELEMENT_SET_NO":999,"REV_AT_EPOCH":9279,"BSTAR":0.00093182,"MEAN_MOTION_DOT":0.00015382,"MEAN_MOTION_DDOT":0},{"OBJECT_NAME":"SATELIOT_2","OBJECT_ID":"2024-149BU","EPOCH":"2026-04-27T04:50:08.820672","MEAN_MOTION":14.96166968,"ECCENTRICITY":9.57e-5,"INCLINATION":97.6836,"RA_OF_ASC_NODE":193.0917,"ARG_OF_PERICENTER":105.4994,"MEAN_ANOMALY":254.6333,"EPHEMERIS_TYPE":0,"CLASSIFICATION_TYPE":"U","NORAD_CAT_ID":60534,"ELEMENT_SET_NO":999,"REV_AT_EPOCH":9234,"BSTAR":0.00017765,"MEAN_MOTION_DOT":1.944e-5,"MEAN_MOTION_DDOT":0},{"OBJECT_NAME":"NIGHTJAR","OBJECT_ID":"2024-149BV","EPOCH":"2026-04-27T04:31:32.187936","MEAN_MOTION":14.98725812,"ECCENTRICITY":7.2e-5,"INCLINATION":97.6857,"RA_OF_ASC_NODE":194.6149,"ARG_OF_PERICENTER":59.6735,"MEAN_ANOMALY":300.4559,"EPHEMERIS_TYPE":0,"CLASSIFICATION_TYPE":"U","NORAD_CAT_ID":60535,"ELEMENT_SET_NO":999,"REV_AT_EPOCH":13523,"BSTAR":0.00025162,"MEAN_MOTION_DOT":2.969e-5,"MEAN_MOTION_DDOT":0},{"OBJECT_NAME":"LEMUR-2-MARHISYAM","OBJECT_ID":"2024-149BW","EPOCH":"2026-04-27T04:37:38.422848","MEAN_MOTION":15.10181212,"ECCENTRICITY":5.34e-5,"INCLINATION":97.6873,"RA_OF_ASC_NODE":199.8672,"ARG_OF_PERICENTER":302.1479,"MEAN_ANOMALY":57.9698,"EPHEMERIS_TYPE":0,"CLASSIFICATION_TYPE":"U","NORAD_CAT_ID":60536,"ELEMENT_SET_NO":999,"REV_AT_EPOCH":9278,"BSTAR":0.00088189,"MEAN_MOTION_DOT":0.00014353,"MEAN_MOTION_DDOT":0},{"OBJECT_NAME":"SATELIOT_4","OBJECT_ID":"2024-149BX","EPOCH":"2026-04-27T03:44:37.192128","MEAN_MOTION":14.96476268,"ECCENTRICITY":0.0002208,"INCLINATION":97.6749,"RA_OF_ASC_NODE":192.6092,"ARG_OF_PERICENTER":157.4874,"MEAN_ANOMALY":202.6445,"EPHEMERIS_TYPE":0,"CLASSIFICATION_TYPE":"U","NORAD_CAT_ID":60537,"ELEMENT_SET_NO":999,"REV_AT_EPOCH":9234,"BSTAR":0.00025073,"MEAN_MOTION_DOT":2.79e-5,"MEAN_MOTION_DDOT":0},{"OBJECT_NAME":"PICO-02A021","OBJECT_ID":"2024-149BY","EPOCH":"2026-04-26T10:29:37.259520","MEAN_MOTION":15.02737662,"ECCENTRICITY":0.0005128,"INCLINATION":97.6744,"RA_OF_ASC_NODE":195.7336,"ARG_OF_PERICENTER":185.3567,"MEAN_ANOMALY":174.7604,"EPHEMERIS_TYPE":0,"CLASSIFICATION_TYPE":"U","NORAD_CAT_ID":60538,"ELEMENT_SET_NO":999,"REV_AT_EPOCH":9196,"BSTAR":0.00054124552,"MEAN_MOTION_DOT":7.176e-5,"MEAN_MOTION_DDOT":0},{"OBJECT_NAME":"ICEYE-X43","OBJECT_ID":"2024-149BZ","EPOCH":"2026-04-27T04:30:16.504128","MEAN_MOTION":14.99669717,"ECCENTRICITY":0.0002379,"INCLINATION":97.6808,"RA_OF_ASC_NODE":194.854,"ARG_OF_PERICENTER":259.4537,"MEAN_ANOMALY":100.6418,"EPHEMERIS_TYPE":0,"CLASSIFICATION_TYPE":"U","NORAD_CAT_ID":60539,"ELEMENT_SET_NO":999,"REV_AT_EPOCH":9247,"BSTAR":0.0002593,"MEAN_MOTION_DOT":3.138e-5,"MEAN_MOTION_DDOT":0},{"OBJECT_NAME":"HAWK-10A","OBJECT_ID":"2024-149CA","EPOCH":"2026-04-27T03:35:51.690048","MEAN_MOTION":14.96351182,"ECCENTRICITY":0.0002374,"INCLINATION":97.6899,"RA_OF_ASC_NODE":193.9411,"ARG_OF_PERICENTER":220.2048,"MEAN_ANOMALY":139.8998,"EPHEMERIS_TYPE":0,"CLASSIFICATION_TYPE":"U","NORAD_CAT_ID":60540,"ELEMENT_SET_NO":999,"REV_AT_EPOCH":9235,"BSTAR":0.0001824,"MEAN_MOTION_DOT":2.007e-5,"MEAN_MOTION_DDOT":0},{"OBJECT_NAME":"UMBRA-09","OBJECT_ID":"2024-149CB","EPOCH":"2026-04-26T21:20:34.117728","MEAN_MOTION":15.16496038,"ECCENTRICITY":0.0001894,"INCLINATION":97.6965,"RA_OF_ASC_NODE":203.2849,"ARG_OF_PERICENTER":164.6397,"MEAN_ANOMALY":195.4893,"EPHEMERIS_TYPE":0,"CLASSIFICATION_TYPE":"U","NORAD_CAT_ID":60541,"ELEMENT_SET_NO":999,"REV_AT_EPOCH":9294,"BSTAR":0.00031988,"MEAN_MOTION_DOT":6.162e-5,"MEAN_MOTION_DDOT":0},{"OBJECT_NAME":"QPS-SAR-8 (AMATERU-IV)","OBJECT_ID":"2024-149CC","EPOCH":"2026-04-27T03:50:05.119008","MEAN_MOTION":15.03614003,"ECCENTRICITY":0.0001936,"INCLINATION":97.6677,"RA_OF_ASC_NODE":196.7574,"ARG_OF_PERICENTER":281.6897,"MEAN_ANOMALY":78.4111,"EPHEMERIS_TYPE":0,"CLASSIFICATION_TYPE":"U","NORAD_CAT_ID":60542,"ELEMENT_SET_NO":999,"REV_AT_EPOCH":9260,"BSTAR":0.00054074,"MEAN_MOTION_DOT":7.337e-5,"MEAN_MOTION_DDOT":0},{"OBJECT_NAME":"ARCTIC WEATHER SATELLITE","OBJECT_ID":"2024-149CD","EPOCH":"2026-04-27T04:12:50.724576","MEAN_MOTION":14.89769765,"ECCENTRICITY":6.02e-5,"INCLINATION":97.6817,"RA_OF_ASC_NODE":189.0939,"ARG_OF_PERICENTER":284.4756,"MEAN_ANOMALY":75.6396,"EPHEMERIS_TYPE":0,"CLASSIFICATION_TYPE":"U","NORAD_CAT_ID":60543,"ELEMENT_SET_NO":999,"REV_AT_EPOCH":9170,"BSTAR":9.4693e-5,"MEAN_MOTION_DOT":8.54e-6,"MEAN_MOTION_DDOT":0},{"OBJECT_NAME":"CAPELLA-15 (ACADIA-5)","OBJECT_ID":"2024-149CE","EPOCH":"2026-04-27T02:22:54.774048","MEAN_MOTION":14.92426865,"ECCENTRICITY":0.000257,"INCLINATION":97.6807,"RA_OF_ASC_NODE":191.2761,"ARG_OF_PERICENTER":232.5595,"MEAN_ANOMALY":127.5391,"EPHEMERIS_TYPE":0,"CLASSIFICATION_TYPE":"U","NORAD_CAT_ID":60544,"ELEMENT_SET_NO":999,"REV_AT_EPOCH":9223,"BSTAR":0.00034918,"MEAN_MOTION_DOT":3.523e-5,"MEAN_MOTION_DDOT":0},{"OBJECT_NAME":"HAWK-10B","OBJECT_ID":"2024-149CF","EPOCH":"2026-04-27T05:11:57.283008","MEAN_MOTION":14.96352664,"ECCENTRICITY":0.0003848,"INCLINATION":97.6822,"RA_OF_ASC_NODE":193.4131,"ARG_OF_PERICENTER":257.1933,"MEAN_ANOMALY":102.8859,"EPHEMERIS_TYPE":0,"CLASSIFICATION_TYPE":"U","NORAD_CAT_ID":60545,"ELEMENT_SET_NO":999,"REV_AT_EPOCH":9236,"BSTAR":0.00018797,"MEAN_MOTION_DOT":2.07e-5,"MEAN_MOTION_DDOT":0}]
